[
  {
    "COMMENT": "GENERATED VIA SPACETRACK.ORG API",
    "ORIGINATOR": "18 SPCS",
    "NORAD_CAT_ID": "41240",
    "OBJECT_NAME": "JASON 3",
    "OBJECT_TYPE": "PAYLOAD",
    "CLASSIFICATION_TYPE": "U",
    "INTLDES": "16002A",
    "EPOCH": "2023-06-07 13:34:23",
    "EPOCH_MICROSECONDS": "877696",
    "MEAN_MOTION": "12.8092911",
    "ECCENTRICITY": "0.0007826",
    "INCLINATION": "66.0418",
    "RA_OF_ASC_NODE": "271.4989",
    "ARG_OF_PERICENTER": "270.6674",
    "MEAN_ANOMALY": "89.3444",
    "EPHEMERIS_TYPE": "0",
    "ELEMENT_SET_NO": "999",
    "REV_AT_EPOCH": "34539",
    "BSTAR": "0.00022368",
    "MEAN_MOTION_DOT": "-0.00000009",
    "MEAN_MOTION_DDOT": "0",
    "FILE": "3927174",
    "TLE_LINE0": "0 JASON 3",
    "TLE_LINE1": "1 41240U 16002A   23158.56555414 -.00000009  00000-0  22368-3 0  9998",
    "TLE_LINE2": "2 41240  66.0418 271.4989 0007826 270.6674  89.3444 12.80929110345392",
    "OBJECT_ID": "2016-002A",
    "OBJECT_NUMBER": "41240",
    "SEMIMAJOR_AXIS": "7715.874",
    "PERIOD": "112.418",
    "APOGEE": "1343.777",
    "PERIGEE": "1331.700",
    "DECAYED": "0"
  },
  {
    "COMMENT": "GENERATED VIA SPACETRACK.ORG API",
    "ORIGINATOR": "18 SPCS",
    "NORAD_CAT_ID": "41240",
    "OBJECT_NAME": "JASON 3",
    "OBJECT_TYPE": "PAYLOAD",
    "CLASSIFICATION_TYPE": "U",
    "INTLDES": "16002A",
    "EPOCH": "2023-06-07 17:19:15",
    "EPOCH_MICROSECONDS": "410496",
    "MEAN_MOTION": "12.80929105",
    "ECCENTRICITY": "0.0007828",
    "INCLINATION": "66.0418",
    "RA_OF_ASC_NODE": "271.1746",
    "ARG_OF_PERICENTER": "270.6674",
    "MEAN_ANOMALY": "89.3445",
    "EPHEMERIS_TYPE": "0",
    "ELEMENT_SET_NO": "999",
    "REV_AT_EPOCH": "34555",
    "BSTAR": "0.00021651",
    "MEAN_MOTION_DOT": "-0.00000011",
    "MEAN_MOTION_DDOT": "0",
    "FILE": "3927269",
    "TLE_LINE0": "0 JASON 3",
    "TLE_LINE1": "1 41240U 16002A   23158.72170614 -.00000011  00000-0  21651-3 0  9998",
    "TLE_LINE2": "2 41240  66.0418 271.1746 0007828 270.6674  89.3445 12.80929105345555",
    "OBJECT_ID": "2016-002A",
    "OBJECT_NUMBER": "41240",
    "SEMIMAJOR_AXIS": "7715.874",
    "PERIOD": "112.418",
    "APOGEE": "1343.779",
    "PERIGEE": "1331.699",
    "DECAYED": "0"
  },
  {
    "COMMENT": "GENERATED VIA SPACETRACK.ORG API",
    "ORIGINATOR": "18 SPCS",
    "NORAD_CAT_ID": "41240",
    "OBJECT_NAME": "JASON 3",
    "OBJECT_TYPE": "PAYLOAD",
    "CLASSIFICATION_TYPE": "U",
    "INTLDES": "16002A",
    "EPOCH": "2023-06-07 21:04:06",
    "EPOCH_MICROSECONDS": "941568",
    "MEAN_MOTION": "12.80929125",
    "ECCENTRICITY": "0.000783",
    "INCLINATION": "66.0418",
    "RA_OF_ASC_NODE": "270.8503",
    "ARG_OF_PERICENTER": "270.6511",
    "MEAN_ANOMALY": "89.3607",
    "EPHEMERIS_TYPE": "0",
    "ELEMENT_SET_NO": "999",
    "REV_AT_EPOCH": "34543",
    "BSTAR": "0.00024445",
    "MEAN_MOTION_DOT": "-0.00000005",
    "MEAN_MOTION_DDOT": "0",
    "FILE": "3927436",
    "TLE_LINE0": "0 JASON 3",
    "TLE_LINE1": "1 41240U 16002A   23158.87785812 -.00000005  00000-0  24445-3 0  9993",
    "TLE_LINE2": "2 41240  66.0418 270.8503 0007830 270.6511  89.3607 12.80929125345434",
    "OBJECT_ID": "2016-002A",
    "OBJECT_NUMBER": "41240",
    "SEMIMAJOR_AXIS": "7715.874",
    "PERIOD": "112.418",
    "APOGEE": "1343.780",
    "PERIGEE": "1331.697",
    "DECAYED": "0"
  },
  {
    "COMMENT": "GENERATED VIA SPACETRACK.ORG API",
    "ORIGINATOR": "18 SPCS",
    "NORAD_CAT_ID": "41240",
    "OBJECT_NAME": "JASON 3",
    "OBJECT_TYPE": "PAYLOAD",
    "CLASSIFICATION_TYPE": "U",
    "INTLDES": "16002A",
    "EPOCH": "2023-06-08 13:55:58",
    "EPOCH_MICROSECONDS": "823616",
    "MEAN_MOTION": "12.80929202",
    "ECCENTRICITY": "0.000784",
    "INCLINATION": "66.0418",
    "RA_OF_ASC_NODE": "269.3908",
    "ARG_OF_PERICENTER": "270.6076",
    "MEAN_ANOMALY": "89.4041",
    "EPHEMERIS_TYPE": "0",
    "ELEMENT_SET_NO": "999",
    "REV_AT_EPOCH": "34552",
    "BSTAR": "0.00022919",
    "MEAN_MOTION_DOT": "-0.00000008",
    "MEAN_MOTION_DDOT": "0",
    "FILE": "3928007",
    "TLE_LINE0": "0 JASON 3",
    "TLE_LINE1": "1 41240U 16002A   23159.58054194 -.00000008  00000-0  22919-3 0  9991",
    "TLE_LINE2": "2 41240  66.0418 269.3908 0007840 270.6076  89.4041 12.80929202345522",
    "OBJECT_ID": "2016-002A",
    "OBJECT_NUMBER": "41240",
    "SEMIMAJOR_AXIS": "7715.873",
    "PERIOD": "112.418",
    "APOGEE": "1343.788",
    "PERIGEE": "1331.689",
    "DECAYED": "0"
  },
  {
    "COMMENT": "GENERATED VIA SPACETRACK.ORG API",
    "ORIGINATOR": "18 SPCS",
    "NORAD_CAT_ID": "41240",
    "OBJECT_NAME": "JASON 3",
    "OBJECT_TYPE": "PAYLOAD",
    "CLASSIFICATION_TYPE": "U",
    "INTLDES": "16002A",
    "EPOCH": "2023-06-08 15:48:24",
    "EPOCH_MICROSECONDS": "588288",
    "MEAN_MOTION": "12.80929203",
    "ECCENTRICITY": "0.0007843",
    "INCLINATION": "66.0418",
    "RA_OF_ASC_NODE": "269.2287",
    "ARG_OF_PERICENTER": "270.612",
    "MEAN_ANOMALY": "89.3996",
    "EPHEMERIS_TYPE": "0",
    "ELEMENT_SET_NO": "999",
    "REV_AT_EPOCH": "34553",
    "BSTAR": "0.00022372",
    "MEAN_MOTION_DOT": "-0.00000009",
    "MEAN_MOTION_DDOT": "0",
    "FILE": "3928201",
    "TLE_LINE0": "0 JASON 3",
    "TLE_LINE1": "1 41240U 16002A   23159.65861792 -.00000009  00000-0  22372-3 0  9993",
    "TLE_LINE2": "2 41240  66.0418 269.2287 0007843 270.6120  89.3996 12.80929203345534",
    "OBJECT_ID": "2016-002A",
    "OBJECT_NUMBER": "41240",
    "SEMIMAJOR_AXIS": "7715.873",
    "PERIOD": "112.418",
    "APOGEE": "1343.790",
    "PERIGEE": "1331.687",
    "DECAYED": "0"
  },
  {
    "COMMENT": "GENERATED VIA SPACETRACK.ORG API",
    "ORIGINATOR": "18 SPCS",
    "NORAD_CAT_ID": "41240",
    "OBJECT_NAME": "JASON 3",
    "OBJECT_TYPE": "PAYLOAD",
    "CLASSIFICATION_TYPE": "U",
    "INTLDES": "16002A",
    "EPOCH": "2023-06-08 23:18:07",
    "EPOCH_MICROSECONDS": "643520",
    "MEAN_MOTION": "12.80929248",
    "ECCENTRICITY": "0.0007847",
    "INCLINATION": "66.0418",
    "RA_OF_ASC_NODE": "268.58",
    "ARG_OF_PERICENTER": "270.6075",
    "MEAN_ANOMALY": "89.4041",
    "EPHEMERIS_TYPE": "0",
    "ELEMENT_SET_NO": "999",
    "REV_AT_EPOCH": "34571",
    "BSTAR": "0.00021594",
    "MEAN_MOTION_DOT": "-0.00000011",
    "MEAN_MOTION_DDOT": "0",
    "FILE": "3928334",
    "TLE_LINE0": "0 JASON 3",
    "TLE_LINE1": "1 41240U 16002A   23159.97092180 -.00000011  00000-0  21594-3 0  9993",
    "TLE_LINE2": "2 41240  66.0418 268.5800 0007847 270.6075  89.4041 12.80929248345711",
    "OBJECT_ID": "2016-002A",
    "OBJECT_NUMBER": "41240",
    "SEMIMAJOR_AXIS": "7715.873",
    "PERIOD": "112.418",
    "APOGEE": "1343.793",
    "PERIGEE": "1331.684",
    "DECAYED": "0"
  },
  {
    "COMMENT": "GENERATED VIA SPACETRACK.ORG API",
    "ORIGINATOR": "18 SPCS",
    "NORAD_CAT_ID": "41240",
    "OBJECT_NAME": "JASON 3",
    "OBJECT_TYPE": "PAYLOAD",
    "CLASSIFICATION_TYPE": "U",
    "INTLDES": "16002A",
    "EPOCH": "2023-06-09 14:17:33",
    "EPOCH_MICROSECONDS": "754848",
    "MEAN_MOTION": "12.80929333",
    "ECCENTRICITY": "0.0007856",
    "INCLINATION": "66.0418",
    "RA_OF_ASC_NODE": "267.2828",
    "ARG_OF_PERICENTER": "270.5489",
    "MEAN_ANOMALY": "89.4626",
    "EPHEMERIS_TYPE": "0",
    "ELEMENT_SET_NO": "999",
    "REV_AT_EPOCH": "34565",
    "BSTAR": "0.00025831",
    "MEAN_MOTION_DOT": "-0.00000001",
    "MEAN_MOTION_DDOT": "0",
    "FILE": "3928876",
    "TLE_LINE0": "0 JASON 3",
    "TLE_LINE1": "1 41240U 16002A   23160.59552957 -.00000001  00000-0  25831-3 0  9993",
    "TLE_LINE2": "2 41240  66.0418 267.2828 0007856 270.5489  89.4626 12.80929333345652",
    "OBJECT_ID": "2016-002A",
    "OBJECT_NUMBER": "41240",
    "SEMIMAJOR_AXIS": "7715.873",
    "PERIOD": "112.418",
    "APOGEE": "1343.799",
    "PERIGEE": "1331.676",
    "DECAYED": "0"
  },
  {
    "COMMENT": "GENERATED VIA SPACETRACK.ORG API",
    "ORIGINATOR": "18 SPCS",
    "NORAD_CAT_ID": "41240",
    "OBJECT_NAME": "JASON 3",
    "OBJECT_TYPE": "PAYLOAD",
    "CLASSIFICATION_TYPE": "U",
    "INTLDES": "16002A",
    "EPOCH": "2023-06-09 19:54:51",
    "EPOCH_MICROSECONDS": "48864",
    "MEAN_MOTION": "12.80929279",
    "ECCENTRICITY": "0.0007867",
    "INCLINATION": "66.0418",
    "RA_OF_ASC_NODE": "266.7963",
    "ARG_OF_PERICENTER": "270.5364",
    "MEAN_ANOMALY": "89.475",
    "EPHEMERIS_TYPE": "0",
    "ELEMENT_SET_NO": "999",
    "REV_AT_EPOCH": "34568",
    "BSTAR": "0.00016436",
    "MEAN_MOTION_DOT": "-0.00000023",
    "MEAN_MOTION_DDOT": "0",
    "FILE": "3929125",
    "TLE_LINE0": "0 JASON 3",
    "TLE_LINE1": "1 41240U 16002A   23160.82975751 -.00000023  00000-0  16436-3 0  9995",
    "TLE_LINE2": "2 41240  66.0418 266.7963 0007867 270.5364  89.4750 12.80929279345680",
    "OBJECT_ID": "2016-002A",
    "OBJECT_NUMBER": "41240",
    "SEMIMAJOR_AXIS": "7715.873",
    "PERIOD": "112.418",
    "APOGEE": "1343.808",
    "PERIGEE": "1331.668",
    "DECAYED": "0"
  },
  {
    "COMMENT": "GENERATED VIA SPACETRACK.ORG API",
    "ORIGINATOR": "18 SPCS",
    "NORAD_CAT_ID": "41240",
    "OBJECT_NAME": "JASON 3",
    "OBJECT_TYPE": "PAYLOAD",
    "CLASSIFICATION_TYPE": "U",
    "INTLDES": "16002A",
    "EPOCH": "2023-06-10 05:16:59",
    "EPOCH_MICROSECONDS": "870496",
    "MEAN_MOTION": "12.8092931",
    "ECCENTRICITY": "0.0007869",
    "INCLINATION": "66.0418",
    "RA_OF_ASC_NODE": "265.9855",
    "ARG_OF_PERICENTER": "270.5096",
    "MEAN_ANOMALY": "89.5017",
    "EPHEMERIS_TYPE": "0",
    "ELEMENT_SET_NO": "999",
    "REV_AT_EPOCH": "34587",
    "BSTAR": "0.00015575",
    "MEAN_MOTION_DOT": "-0.00000025",
    "MEAN_MOTION_DDOT": "0",
    "FILE": "3929230",
    "TLE_LINE0": "0 JASON 3",
    "TLE_LINE1": "1 41240U 16002A   23161.22013739 -.00000025  00000-0  15575-3 0  9994",
    "TLE_LINE2": "2 41240  66.0418 265.9855 0007869 270.5096  89.5017 12.80929310345879",
    "OBJECT_ID": "2016-002A",
    "OBJECT_NUMBER": "41240",
    "SEMIMAJOR_AXIS": "7715.873",
    "PERIOD": "112.418",
    "APOGEE": "1343.810",
    "PERIGEE": "1331.666",
    "DECAYED": "0"
  }
]